{"type": "FeatureCollection", "features": [ {"type": "Feature", "properties": {"norad_id": 41774, "name": "SKYSAT-C3", "group": "resource", "lat": 2.2969289293594803, "lon": -159.47777621709955, "alt_km": 435.68598904375176, "timestamp": "2025-12-12T11:38:31.073665+00:00", "meta": {"OBJECT_NAME": "SKYSAT-C3", "OBJECT_ID": "2016-058E", "EPOCH": "2025-12-12T01:32:43.071360", "MEAN_MOTION": 15.44357014, "ECCENTRICITY": 0.0001623, "INCLINATION": 96.9305, "RA_OF_ASC_NODE": 19.8415, "ARG_OF_PERICENTER": 107.5379, "MEAN_ANOMALY": 252.6048, "EPHEMERIS_TYPE": 0, "CLASSIFICATION_TYPE": "U", "NORAD_CAT_ID": 41774, "ELEMENT_SET_NO": 999, "REV_AT_EPOCH": 51715, "BSTAR": 0.00054673, "MEAN_MOTION_DOT": 0.00025186, "MEAN_MOTION_DDOT": 0}, "tle": {"line1": "1 41774U 16058E   25346.06438740  .00025186  00000+0  54673-3 0  9994", "line2": "2 41774  96.9305  19.8415 0001623 107.5379 252.6048 15.44357014517159"}}, "geometry": {"type": "Point", "coordinates": [-159.47777621709955, 2.2969289293594803]}}, {"type": "Feature", "properties": {"norad_id": 41785, "name": "ALSAT 1B", "group": "resource", "lat": 75.53761487924498, "lon": -149.69549111167368, "alt_km": 639.7682161200964, "timestamp": "2025-12-12T11:38:31.073675+00:00", "meta": {"OBJECT_NAME": "ALSAT 1B", "OBJECT_ID": "2016-059C", "EPOCH": "2025-12-12T04:39:16.341696", "MEAN_MOTION": 14.72073815, "ECCENTRICITY": 0.00107, "INCLINATION": 97.7816, "RA_OF_ASC_NODE": 358.0071, "ARG_OF_PERICENTER": 104.5136, "MEAN_ANOMALY": 255.726, "EPHEMERIS_TYPE": 0, "CLASSIFICATION_TYPE": "U", "NORAD_CAT_ID": 41785, "ELEMENT_SET_NO": 999, "REV_AT_EPOCH": 49306, "BSTAR": 0.00010611, "MEAN_MOTION_DOT": 6.2e-06, "MEAN_MOTION_DDOT": 0}, "tle": {"line1": "1 41785U 16059C   25346.19393914  .00000620  00000+0  10611-3 0  9994", "line2": "2 41785  97.7816 358.0071 0010700 104.5136 255.7260 14.72073815493064"}}, "geometry": {"type": "Point", "coordinates": [-149.69549111167368, 75.53761487924498]}}, {"type": "Feature", "properties": {"norad_id": 41787, "name": "PATHFINDER 1", "group": "resource", "lat": -5.551457233031605, "lon": 168.5057331037712, "alt_km": 678.2496457932175, "timestamp": "2025-12-12T11:38:31.073685+00:00", "meta": {"OBJECT_NAME": "PATHFINDER 1", "OBJECT_ID": "2016-059E", "EPOCH": "2025-12-11T23:20:45.576672", "MEAN_MOTION": 14.67319027, "ECCENTRICITY": 0.0030047, "INCLINATION": 97.8139, "RA_OF_ASC_NODE": 348.7819, "ARG_OF_PERICENTER": 83.5355, "MEAN_ANOMALY": 276.927, "EPHEMERIS_TYPE": 0, "CLASSIFICATION_TYPE": "U", "NORAD_CAT_ID": 41787, "ELEMENT_SET_NO": 999, "REV_AT_EPOCH": 49225, "BSTAR": 0.0002355, "MEAN_MOTION_DOT": 1.291e-05, "MEAN_MOTION_DDOT": 0}, "tle": {"line1": "1 41787U 16059E   25345.97274973  .00001291  00000+0  23550-3 0  9995", "line2": "2 41787  97.8139 348.7819 0030047  83.5355 276.9270 14.67319027492254"}}, "geometry": {"type": "Point", "coordinates": [168.5057331037712, -5.551457233031605]}}, {"type": "Feature", "properties": {"norad_id": 41790, "name": "SCATSAT 1", "group": "resource", "lat": 12.26617197865003, "lon": -135.06321484098717, "alt_km": 603.1082092706647, "timestamp": "2025-12-12T11:38:31.073695+00:00", "meta": {"OBJECT_NAME": "SCATSAT 1", "OBJECT_ID": "2016-059H", "EPOCH": "2025-12-12T02:46:20.070912", "MEAN_MOTION": 14.78933776, "ECCENTRICITY": 0.0056243, "INCLINATION": 98.1465, "RA_OF_ASC_NODE": 42.7779, "ARG_OF_PERICENTER": 129.9634, "MEAN_ANOMALY": 230.6536, "EPHEMERIS_TYPE": 0, "CLASSIFICATION_TYPE": "U", "NORAD_CAT_ID": 41790, "ELEMENT_SET_NO": 999, "REV_AT_EPOCH": 7393, "BSTAR": 0.00037195, "MEAN_MOTION_DOT": 2.761e-05, "MEAN_MOTION_DDOT": 0}, "tle": {"line1": "1 41790U 16059H   25346.11551008  .00002761  00000+0  37195-3 0  9996", "line2": "2 41790  98.1465  42.7779 0056243 129.9634 230.6536 14.78933776 73938"}}, "geometry": {"type": "Point", "coordinates": [-135.06321484098717, 12.26617197865003]}}, {"type": "Feature", "properties": {"norad_id": 41875, "name": "GOKTURK 1A", "group": "resource", "lat": -81.13255110777828, "lon": -7.735936564796696, "alt_km": 692.4270831508711, "timestamp": "2025-12-12T11:38:31.073706+00:00", "meta": {"OBJECT_NAME": "GOKTURK 1A", "OBJECT_ID": "2016-073A", "EPOCH": "2025-12-12T05:30:08.214336", "MEAN_MOTION": 14.62780033, "ECCENTRICITY": 0.0001248, "INCLINATION": 98.1424, "RA_OF_ASC_NODE": 238.6012, "ARG_OF_PERICENTER": 78.1591, "MEAN_ANOMALY": 281.975, "EPHEMERIS_TYPE": 0, "CLASSIFICATION_TYPE": "U", "NORAD_CAT_ID": 41875, "ELEMENT_SET_NO": 999, "REV_AT_EPOCH": 48149, "BSTAR": 0.00024276, "MEAN_MOTION_DOT": 1.191e-05, "MEAN_MOTION_DDOT": 0}, "tle": {"line1": "1 41875U 16073A   25346.22926174  .00001191  00000+0  24276-3 0  9990", "line2": "2 41875  98.1424 238.6012 0001248  78.1591 281.9750 14.62780033481495"}}, "geometry": {"type": "Point", "coordinates": [-7.735936564796696, -81.13255110777828]}}, {"type": "Feature", "properties": {"norad_id": 41877, "name": "RESOURCESAT-2A", "group": "resource", "lat": -6.966076772545654, "lon": 57.423269381124214, "alt_km": 823.8053976304718, "timestamp": "2025-12-12T11:38:31.073716+00:00", "meta": {"OBJECT_NAME": "RESOURCESAT-2A", "OBJECT_ID": "2016-074A", "EPOCH": "2025-12-12T04:55:05.782656", "MEAN_MOTION": 14.21598644, "ECCENTRICITY": 0.0001134, "INCLINATION": 98.7752, "RA_OF_ASC_NODE": 56.0634, "ARG_OF_PERICENTER": 258.4315, "MEAN_ANOMALY": 101.6735, "EPHEMERIS_TYPE": 0, "CLASSIFICATION_TYPE": "U", "NORAD_CAT_ID": 41877, "ELEMENT_SET_NO": 999, "REV_AT_EPOCH": 46773, "BSTAR": 9.0584e-05, "MEAN_MOTION_DOT": 1.54e-06, "MEAN_MOTION_DDOT": 0}, "tle": {"line1": "1 41877U 16074A   25346.20492804  .00000154  00000+0  90584-4 0  9993", "line2": "2 41877  98.7752  56.0634 0001134 258.4315 101.6735 14.21598644467732"}}, "geometry": {"type": "Point", "coordinates": [57.423269381124214, -6.966076772545654]}}, {"type": "Feature", "properties": {"norad_id": 41948, "name": "CARTOSAT-2D", "group": "resource", "lat": -82.55561945530512, "lon": 133.42507232027592, "alt_km": 516.3311769985248, "timestamp": "2025-12-12T11:38:31.073726+00:00", "meta": {"OBJECT_NAME": "CARTOSAT-2D", "OBJECT_ID": "2017-008A", "EPOCH": "2025-12-12T04:08:02.482080", "MEAN_MOTION": 15.19255024, "ECCENTRICITY": 0.0004656, "INCLINATION": 97.4389, "RA_OF_ASC_NODE": 43.6776, "ARG_OF_PERICENTER": 165.006, "MEAN_ANOMALY": 195.1314, "EPHEMERIS_TYPE": 0, "CLASSIFICATION_TYPE": "U", "NORAD_CAT_ID": 41948, "ELEMENT_SET_NO": 999, "REV_AT_EPOCH": 48918, "BSTAR": 0.00052487, "MEAN_MOTION_DOT": 0.00011007, "MEAN_MOTION_DDOT": 0}, "tle": {"line1": "1 41948U 17008A   25346.17225095  .00011007  00000+0  52487-3 0  9990", "line2": "2 41948  97.4389  43.6776 0004656 165.0060 195.1314 15.19255024489188"}}, "geometry": {"type": "Point", "coordinates": [133.42507232027592, -82.55561945530512]}}, {"type": "Feature", "properties": {"norad_id": 42063, "name": "SENTINEL-2B", "group": "resource", "lat": -46.21629409499706, "lon": 67.98764396905781, "alt_km": 796.363097397837, "timestamp": "2025-12-12T11:38:31.073736+00:00", "meta": {"OBJECT_NAME": "SENTINEL-2B", "OBJECT_ID": "2017-013A", "EPOCH": "2025-12-12T05:08:50.888832", "MEAN_MOTION": 14.30815697, "ECCENTRICITY": 0.0001144, "INCLINATION": 98.5711, "RA_OF_ASC_NODE": 58.6672, "ARG_OF_PERICENTER": 93.1144, "MEAN_ANOMALY": 267.017, "EPHEMERIS_TYPE": 0, "CLASSIFICATION_TYPE": "U", "NORAD_CAT_ID": 42063, "ELEMENT_SET_NO": 999, "REV_AT_EPOCH": 45790, "BSTAR": 0.00010506, "MEAN_MOTION_DOT": 2.32e-06, "MEAN_MOTION_DDOT": 0}, "tle": {"line1": "1 42063U 17013A   25346.21447788  .00000232  00000+0  10506-3 0  9999", "line2": "2 42063  98.5711  58.6672 0001144  93.1144 267.0170 14.30815697457906"}}, "geometry": {"type": "Point", "coordinates": [67.98764396905781, -46.21629409499706]}}, {"type": "Feature", "properties": {"norad_id": 42767, "name": "CARTOSAT-2E", "group": "resource", "lat": -0.9970414362311463, "lon": -136.05542386191195, "alt_km": 510.7748609290784, "timestamp": "2025-12-12T11:38:31.073746+00:00", "meta": {"OBJECT_NAME": "CARTOSAT-2E", "OBJECT_ID": "2017-036C", "EPOCH": "2025-12-12T04:31:29.621856", "MEAN_MOTION": 15.1919139, "ECCENTRICITY": 0.0001969, "INCLINATION": 97.4551, "RA_OF_ASC_NODE": 43.7825, "ARG_OF_PERICENTER": 240.4077, "MEAN_ANOMALY": 119.6961, "EPHEMERIS_TYPE": 0, "CLASSIFICATION_TYPE": "U", "NORAD_CAT_ID": 42767, "ELEMENT_SET_NO": 999, "REV_AT_EPOCH": 46975, "BSTAR": 0.00043027, "MEAN_MOTION_DOT": 8.99e-05, "MEAN_MOTION_DDOT": 0}, "tle": {"line1": "1 42767U 17036C   25346.18853729  .00008990  00000+0  43027-3 0  9990", "line2": "2 42767  97.4551  43.7825 0001969 240.4077 119.6961 15.19191390469750"}}, "geometry": {"type": "Point", "coordinates": [-136.05542386191195, -0.9970414362311463]}}, {"type": "Feature", "properties": {"norad_id": 42920, "name": "FORMOSAT-5", "group": "resource", "lat": -62.09562131562464, "lon": 76.70055505652418, "alt_km": 722.4988824743277, "timestamp": "2025-12-12T11:38:31.073756+00:00", "meta": {"OBJECT_NAME": "FORMOSAT-5", "OBJECT_ID": "2017-049A", "EPOCH": "2025-12-12T03:39:27.220896", "MEAN_MOTION": 14.51004964, "ECCENTRICITY": 0.0009907, "INCLINATION": 98.2453, "RA_OF_ASC_NODE": 60.4831, "ARG_OF_PERICENTER": 297.529, "MEAN_ANOMALY": 62.4897, "EPHEMERIS_TYPE": 0, "CLASSIFICATION_TYPE": "U", "NORAD_CAT_ID": 42920, "ELEMENT_SET_NO": 999, "REV_AT_EPOCH": 43955, "BSTAR": 0.00011245, "MEAN_MOTION_DOT": 4.01e-06, "MEAN_MOTION_DDOT": 0}, "tle": {"line1": "1 42920U 17049A   25346.15239839  .00000401  00000+0  11245-3 0  9998", "line2": "2 42920  98.2453  60.4831 0009907 297.5290  62.4897 14.51004964439557"}}, "geometry": {"type": "Point", "coordinates": [76.70055505652418, -62.09562131562464]}}]}